     2.10           N: GPS NAV DATA                         RINEX VERSION / TYPE
teqc  2013Mar15     gpsops              20140601 00:23:07UTCPGM / RUN BY / DATE
Linux 2.4.21-27.ELsmp|Opteron|gcc -static|Linux x86_64|=+   COMMENT
GLPS                                    MARKER NAME         COMMENT
42005M002                               MARKER NUMBER       COMMENT
-33801.4662 -6377516.5323 -82154.3508                       COMMENT
                                                            COMMENT
This data is provided as a public service by NASA/JPL.      COMMENT
No warranty is expressed or implied regarding suitability   COMMENT
for use.  For further information, contact:                 COMMENT
Dave Stowers, NASA/JPL m/s 238-600                          COMMENT
4800 Oak Grove Drive, Pasadena CA 91109 USA                 COMMENT
                                                            END OF HEADER
 5 14  5 31  8  0  0.0-3.691562451422D-04 2.614797267597D-12 0.000000000000D+00
    1.500000000000D+01-1.740625000000D+01 5.329150551940D-09 2.110500081771D+00
   -8.065253496170D-07 3.575475537218D-03 6.068497896194D-06 5.153596706390D+03
    5.472000000000D+05-1.117587089539D-07-6.595534078583D-01 9.313225746155D-08
    9.471513901200D-01 2.572187500000D+02 3.052120733079D-01-8.307131739667D-09
   -3.178703834345D-10 0.000000000000D+00 1.794000000000D+03 0.000000000000D+00
    2.000000000000D+00 0.000000000000D+00-1.024454832077D-08 1.500000000000D+01
    5.400000000000D+05 4.000000000000D+00
12 14  5 31  8  0  0.0 2.084425650537D-04 2.501110429876D-12 0.000000000000D+00
    6.900000000000D+01-8.646875000000D+01 3.838374169405D-09-1.954648354355D+00
   -4.433095455170D-06 5.148659925908D-03 3.317371010780D-06 5.153619062424D+03
    5.472000000000D+05-3.166496753693D-08 2.525878975558D+00-7.823109626770D-08
    9.876454306879D-01 3.296875000000D+02 4.432325277853D-01-7.887828559721D-09
   -1.317912039184D-10 0.000000000000D+00 1.794000000000D+03 0.000000000000D+00
    2.000000000000D+00 0.000000000000D+00-1.210719347000D-08 6.900000000000D+01
    5.400000000000D+05 4.000000000000D+00
15 14  5 31  8  0  0.0-1.825750805438D-04-2.160049916711D-12 0.000000000000D+00
    6.900000000000D+01 4.271875000000D+01 4.955563561971D-09 5.674894964097D-01
    2.374872565269D-06 6.268247729167D-03 1.015886664391D-05 5.153701620102D+03
    5.472000000000D+05 3.911554813385D-08 3.539810163645D-01 8.568167686462D-08
    9.371145008205D-01 1.664687500000D+02 2.757683702424D-01-8.178197797622D-09
   -4.368039089218D-10 0.000000000000D+00 1.794000000000D+03 0.000000000000D+00
    2.000000000000D+00 0.000000000000D+00-1.024454832077D-08 6.900000000000D+01
    5.400000000000D+05 4.000000000000D+00
18 14  5 31  8  0  0.0 3.225854597986D-04 2.273736754432D-12 0.000000000000D+00
    4.200000000000D+01-2.443750000000D+01 5.613805266094D-09 2.849519711717D+00
   -1.356005668640D-06 1.533715822734D-02 5.858018994331D-06 5.153694087982D+03
    5.472000000000D+05 3.539025783539D-08-6.649019519266D-01-2.793967723846D-07
    9.257104984837D-01 2.450625000000D+02-2.035759513715D+00-8.273558912652D-09
   -4.403754862638D-10 0.000000000000D+00 1.794000000000D+03 0.000000000000D+00
    2.000000000000D+00 0.000000000000D+00-1.117587089539D-08 4.200000000000D+01
    5.400000000000D+05 4.000000000000D+00
24 14  5 31  8  0  0.0-2.929987385869D-05-6.821210263297D-13 0.000000000000D+00
    5.300000000000D+01 9.200000000000D+01 4.576619205989D-09-6.959202727184D-01
    4.684552550316D-06 2.074109390378D-03 3.954395651817D-06 5.153733411789D+03
    5.472000000000D+05 5.215406417847D-08 1.427620518285D+00 1.117587089539D-08
    9.565989340939D-01 3.026562500000D+02 3.487436847914D-01-8.283916486944D-09
    7.286017777600D-11 0.000000000000D+00 1.794000000000D+03 0.000000000000D+00
    2.000000000000D+00 0.000000000000D+00 2.793967723846D-09 5.300000000000D+01
    5.400000000000D+05 4.000000000000D+00
25 14  5 31  8  0  0.0 2.448121085763D-05 3.410605131648D-13 0.000000000000D+00
    5.900000000000D+01-7.918750000000D+01 4.082312901861D-09-2.720749946568D+00
   -4.043802618980D-06 3.638811525889D-03 2.982094883919D-06 5.153607933044D+03
    5.472000000000D+05 1.676380634308D-08 2.483406842995D+00 1.862645149231D-09
    9.763220088048D-01 3.302187500000D+02 6.851457259953D-01-8.036049019412D-09
   -1.328626771209D-10 0.000000000000D+00 1.794000000000D+03 0.000000000000D+00
    2.000000000000D+00 0.000000000000D+00 5.122274160385D-09 5.900000000000D+01
    5.400000000000D+05 4.000000000000D+00
26 14  5 31  8  0  0.0 6.182910874486D-05-1.205080479849D-11 0.000000000000D+00
    1.780000000000D+02 5.975000000000D+01 4.155173079637D-09 2.304866932674D-02
    3.371387720108D-06 2.133849007078D-02 1.051090657711D-05 5.153696323395D+03
    5.472000000000D+05-2.831220626831D-07 4.891694004176D-01 1.974403858185D-07
    9.753330995899D-01 1.877187500000D+02 1.285347668164D+00-8.083193840326D-09
   -3.053698627377D-10 0.000000000000D+00 1.794000000000D+03 0.000000000000D+00
    2.000000000000D+00 0.000000000000D+00-6.053596735001D-09 1.780000000000D+02
    5.400000000000D+05 4.000000000000D+00
29 14  5 31  8  0  0.0 5.363635718822D-04 2.614797267597D-12 0.000000000000D+00
    2.500000000000D+01-6.893750000000D+01 3.933378126701D-09-2.294148601503D+00
   -3.479421138763D-06 1.553983427584D-03 1.048669219017D-05 5.153706790924D+03
    5.472000000000D+05 0.000000000000D+00-2.698289564877D+00 3.352761268616D-08
    9.697715692784D-01 1.812500000000D+02-8.513882035761D-01-7.672462446000D-09
    2.978695503195D-10 0.000000000000D+00 1.794000000000D+03 0.000000000000D+00
    2.000000000000D+00 0.000000000000D+00-9.778887033463D-09 2.500000000000D+01
    5.400000000000D+05 4.000000000000D+00
22 14  5 31  8  0  0.0 2.384250983596D-04 2.955857780762D-12 0.000000000000D+00
    4.100000000000D+01-2.218750000000D+01 5.733453107050D-09 2.290429108880D+00
   -1.220032572746D-06 7.270548609085D-03 6.064772605896D-06 5.153721652985D+03
    5.472000000000D+05-1.862645149231D-08-6.630229901860D-01-1.415610313416D-07
    9.234884166222D-01 2.439687500000D+02-2.056839364484D+00-8.433565577572D-09
   -3.839445642608D-10 0.000000000000D+00 1.794000000000D+03 0.000000000000D+00
    2.000000000000D+00 0.000000000000D+00-1.722946763039D-08 4.100000000000D+01
    5.436300000000D+05 4.000000000000D+00
14 14  5 31  8  0  0.0 1.679691486061D-04-3.410605131648D-12 0.000000000000D+00
    9.000000000000D+01 6.837500000000D+01 4.070526696633D-09 1.184748981459D+00
    3.587454557419D-06 7.534581585787D-03 1.068972051144D-05 5.153672451019D+03
    5.472000000000D+05-1.471489667892D-07 4.660515218994D-01 2.793967723846D-08
    9.705139285207D-01 1.831562500000D+02-2.002939967724D+00-7.804610807653D-09
   -3.221562762449D-10 0.000000000000D+00 1.794000000000D+03 0.000000000000D+00
    2.800000000000D+00 0.000000000000D+00-9.313225746155D-09 9.000000000000D+01
    5.448600000000D+05 4.000000000000D+00
21 14  5 31  8  0  0.0-3.642486408353D-04-2.160049916711D-12 0.000000000000D+00
    4.000000000000D+01 2.912500000000D+01 5.335579391155D-09-2.473331610612D+00
    1.167878508568D-06 2.150248282123D-02 6.567686796188D-06 5.153747528076D+03
    5.472000000000D+05 3.166496753693D-07-1.710447605774D+00-2.980232238770D-08
    9.319904649381D-01 2.317187500000D+02-2.021127690892D+00-8.066050269084D-09
    7.086009446450D-10 0.000000000000D+00 1.794000000000D+03 0.000000000000D+00
    2.000000000000D+00 0.000000000000D+00-1.117587089539D-08 4.000000000000D+01
    5.455500000000D+05 4.000000000000D+00
 2 14  5 31 10  0  0.0 4.984219558537D-04 2.160049916711D-12 0.000000000000D+00
    6.000000000000D+01 1.975000000000D+01 5.253433112290D-09 7.939577409668D-01
    9.331852197647D-07 1.354820164852D-02 7.523223757744D-06 5.153608694077D+03
    5.544000000000D+05-1.154839992523D-07-1.727808546161D+00 1.471489667892D-07
    9.390614268092D-01 2.241562500000D+02-2.420330445552D+00-8.418922110470D-09
    4.275178078327D-10 0.000000000000D+00 1.794000000000D+03 0.000000000000D+00
    2.000000000000D+00 0.000000000000D+00-2.048909664154D-08 6.000000000000D+01
    5.472000000000D+05 4.000000000000D+00
12 14  5 31 10  0  0.0 2.084602601826D-04 2.501110429876D-12 0.000000000000D+00
    7.000000000000D+01-7.443750000000D+01 4.005523989009D-09-9.048156000587D-01
   -3.937631845474D-06 5.148498690687D-03 2.978369593620D-06 5.153615367889D+03
    5.544000000000D+05 1.993030309677D-07 2.525822746839D+00 1.303851604462D-08
    9.876434952473D-01 3.367812500000D+02 4.436104185431D-01-8.032834599804D-09
   -2.925121843066D-10 0.000000000000D+00 1.794000000000D+03 0.000000000000D+00
    2.000000000000D+00 0.000000000000D+00-1.210719347000D-08 7.000000000000D+01
    5.472000000000D+05 4.000000000000D+00
14 14  5 31 10  0  0.0 1.679440028965D-04-3.410605131648D-12 0.000000000000D+00
    9.400000000000D+01 6.359375000000D+01 4.053383125391D-09 2.234944504329D+00
    3.168359398842D-06 7.535048294812D-03 1.059845089912D-05 5.153672086716D+03
    5.544000000000D+05 1.862645149231D-09 4.659956750018D-01-1.396983861923D-07
    9.705127099099D-01 1.783750000000D+02-2.002957372060D+00-7.599602268224D-09
   -2.721541934574D-10 0.000000000000D+00 1.794000000000D+03 0.000000000000D+00
    4.000000000000D+00 0.000000000000D+00-9.313225746155D-09 9.400000000000D+01
    5.472000000000D+05 4.000000000000D+00
15 14  5 31 10  0  0.0-1.825909130275D-04-2.160049916711D-12 0.000000000000D+00
    7.000000000000D+01 4.287500000000D+01 4.973421448680D-09 1.617454119605D+00
    2.508983016014D-06 6.268619443290D-03 1.091510057449D-05 5.153704069138D+03
    5.544000000000D+05-2.421438694000D-08 3.539221968173D-01 1.266598701477D-07
    9.371113131220D-01 1.565000000000D+02 2.759703860629D-01-8.157839806773D-09
   -4.278749655669D-10 0.000000000000D+00 1.794000000000D+03 0.000000000000D+00
    2.000000000000D+00 0.000000000000D+00-1.024454832077D-08 7.000000000000D+01
    5.472000000000D+05 4.000000000000D+00
